[{"OBJECT_NAME":"STARLINK-30148","OBJECT_ID":"2023-119R","EPOCH":"2026-03-09T22:00:01.999584","MEAN_MOTION":15.22155034,"ECCENTRICITY":0.00015016,"INCLINATION":43.0007,"RA_OF_ASC_NODE":79.7897,"ARG_OF_PERICENTER":287.7319,"MEAN_ANOMALY":193.3856,"EPHEMERIS_TYPE":0,"CLASSIFICATION_TYPE":"U","NORAD_CAT_ID":57617,"ELEMENT_SET_NO":999,"REV_AT_EPOCH":573,"BSTAR":0.046088081,"MEAN_MOTION_DOT":0.01172533,"MEAN_MOTION_DDOT":0},{"OBJECT_NAME":"YAOGAN-39 04A","OBJECT_ID":"2023-163A","EPOCH":"2026-03-06T06:05:45.530880","MEAN_MOTION":15.22966265,"ECCENTRICITY":0.00046272,"INCLINATION":34.9991,"RA_OF_ASC_NODE":272.0787,"ARG_OF_PERICENTER":162.7485,"MEAN_ANOMALY":197.3387,"EPHEMERIS_TYPE":0,"CLASSIFICATION_TYPE":"U","NORAD_CAT_ID":58141,"ELEMENT_SET_NO":999,"REV_AT_EPOCH":13187,"BSTAR":8.2738647e-5,"MEAN_MOTION_DOT":1.955e-5,"MEAN_MOTION_DDOT":0}]
